STARLINK-30150
1 57621U 23119V   26061.16668981  .00096978  00000+0  56868-2 0  9990
2 57621  43.0008 122.6331 0002195 263.3832  58.7183 15.10715766  5815
